[{"OBJECT_NAME":"STARLINK-34242","OBJECT_ID":"2025-144D","EPOCH":"2026-03-09T14:16:25.231008","MEAN_MOTION":15.30191851,"ECCENTRICITY":9.09e-5,"INCLINATION":53.1578,"RA_OF_ASC_NODE":181.7478,"ARG_OF_PERICENTER":75.9215,"MEAN_ANOMALY":284.1886,"EPHEMERIS_TYPE":0,"CLASSIFICATION_TYPE":"U","NORAD_CAT_ID":64727,"ELEMENT_SET_NO":999,"REV_AT_EPOCH":3969,"BSTAR":0.00092478,"MEAN_MOTION_DOT":0.00027123,"MEAN_MOTION_DDOT":0},{"OBJECT_NAME":"CZ-4B DEB","OBJECT_ID":"2004-035N","EPOCH":"2026-03-08T07:19:22.074240","MEAN_MOTION":15.17712882,"ECCENTRICITY":0.00700404,"INCLINATION":97.867,"RA_OF_ASC_NODE":11.9774,"ARG_OF_PERICENTER":119.6038,"MEAN_ANOMALY":241.2197,"EPHEMERIS_TYPE":0,"CLASSIFICATION_TYPE":"U","NORAD_CAT_ID":35270,"ELEMENT_SET_NO":999,"REV_AT_EPOCH":13623,"BSTAR":0.0033008842,"MEAN_MOTION_DOT":0.00071474,"MEAN_MOTION_DDOT":0}]
